SL-14 R/B               
1 16792U 86046B   25355.80809734  .00000449  00000+0  48960-4 0  9995
2 16792  82.4816 153.7497 0024387 123.5127 236.8424 14.85493826114844
SL-14 R/B               
1 16882U 86055B   25355.86388259  .00000394  00000+0  42739-4 0  9992
2 16882  82.5197 199.7992 0017772 226.7761 143.6641 14.85538885107817
AJISAI (EGS)            
1 16908U 86061A   25355.81779757 -.00000097  00000+0  50129-5 0  9994
2 16908  50.0113 332.8030 0011315  88.6582 340.9557 12.44514356458301
SL-14 R/B               
1 17567U 87024B   25355.73507613  .00000429  00000+0  46155-4 0  9998
2 17567  82.5276 166.0040 0018866 154.7519 205.4624 14.86032344 76557
COSMOS 1833             
1 17589U 87027A   25355.77903542  .00000225  00000+0  14623-3 0  9998
2 17589  70.9153 129.7749 0022902 319.0884  40.8517 14.13025950999309
SL-16 R/B               
1 17590U 87027B   25355.69617889  .00000151  00000+0  98705-4 0  9999
2 17590  71.0038  80.8458 0007245 250.2235 109.8108 14.17155834  4294
SL-14 R/B               
1 17912U 87038B   25355.75732793  .00000363  00000+0  39328-4 0  9999
2 17912  82.5010  10.2068 0020745  64.4265 295.9092 14.85268702 67664
COSMOS 1844             
1 17973U 87041A   25355.75506869  .00000268  00000+0  16387-3 0  9996
2 17973  70.8965 198.5561 0029771 142.8230 217.4961 14.14528939992562
SL-14 R/B               
1 18153U 87055B   25355.68025924  .00000415  00000+0  45199-4 0  9990
2 18153  82.4994  62.5627 0019154 271.5451  88.3571 14.85529608 58350
COSMOS 1867             
1 18187U 87060A   25355.75483191 -.00000041  00000+0  22131-4 0  9992
2 18187  65.0086 164.9564 0013646 271.9636  87.9885 14.31487386  8784
SL-14 R/B               
1 18749U 88001B   25355.73782443  .00000412  00000+0  44876-4 0  9993
2 18749  82.5136 268.6846 0019188 132.5858 227.6981 14.85432558 30457
