CCSDS_OMM_VERS = 2.0
CREATION_DATE  = 
ORIGINATOR     = 

OBJECT_NAME    = SL-14 R/B
OBJECT_ID      = 1986-046B
CENTER_NAME    = EARTH
REF_FRAME      = TEME
TIME_SYSTEM    = UTC
MEAN_ELEMENT_THEORY = SGP/SGP4

EPOCH          = 2025-12-21T19:23:39.610176
MEAN_MOTION    = 14.85493826
ECCENTRICITY   = .0024387
INCLINATION    = 82.4816
RA_OF_ASC_NODE = 153.7497
ARG_OF_PERICENTER = 123.5127
MEAN_ANOMALY   = 236.8424

EPHEMERIS_TYPE = 0
CLASSIFICATION_TYPE = U
NORAD_CAT_ID   = 16792
ELEMENT_SET_NO = 999
REV_AT_EPOCH   = 11484
BSTAR          = .4896E-4
MEAN_MOTION_DOT = .449E-5
MEAN_MOTION_DDOT = 0

CCSDS_OMM_VERS = 2.0
CREATION_DATE  = 
ORIGINATOR     = 

OBJECT_NAME    = SL-14 R/B
OBJECT_ID      = 1986-055B
CENTER_NAME    = EARTH
REF_FRAME      = TEME
TIME_SYSTEM    = UTC
MEAN_ELEMENT_THEORY = SGP/SGP4

EPOCH          = 2025-12-21T20:43:59.455776
MEAN_MOTION    = 14.85538885
ECCENTRICITY   = .0017772
INCLINATION    = 82.5197
RA_OF_ASC_NODE = 199.7992
ARG_OF_PERICENTER = 226.7761
MEAN_ANOMALY   = 143.6641

EPHEMERIS_TYPE = 0
CLASSIFICATION_TYPE = U
NORAD_CAT_ID   = 16882
ELEMENT_SET_NO = 999
REV_AT_EPOCH   = 10781
BSTAR          = .42739E-4
MEAN_MOTION_DOT = .394E-5
MEAN_MOTION_DDOT = 0

CCSDS_OMM_VERS = 2.0
CREATION_DATE  = 
ORIGINATOR     = 

OBJECT_NAME    = AJISAI (EGS)
OBJECT_ID      = 1986-061A
CENTER_NAME    = EARTH
REF_FRAME      = TEME
TIME_SYSTEM    = UTC
MEAN_ELEMENT_THEORY = SGP/SGP4

EPOCH          = 2025-12-21T19:37:37.710048
MEAN_MOTION    = 12.44514356
ECCENTRICITY   = .0011315
INCLINATION    = 50.0113
RA_OF_ASC_NODE = 332.8030
ARG_OF_PERICENTER = 88.6582
MEAN_ANOMALY   = 340.9557

EPHEMERIS_TYPE = 0
CLASSIFICATION_TYPE = U
NORAD_CAT_ID   = 16908
ELEMENT_SET_NO = 999
REV_AT_EPOCH   = 45830
BSTAR          = .50129E-5
MEAN_MOTION_DOT = -.97E-6
MEAN_MOTION_DDOT = 0

CCSDS_OMM_VERS = 2.0
CREATION_DATE  = 
ORIGINATOR     = 

OBJECT_NAME    = SL-14 R/B
OBJECT_ID      = 1987-024B
CENTER_NAME    = EARTH
REF_FRAME      = TEME
TIME_SYSTEM    = UTC
MEAN_ELEMENT_THEORY = SGP/SGP4

EPOCH          = 2025-12-21T17:38:30.577632
MEAN_MOTION    = 14.86032344
ECCENTRICITY   = .0018866
INCLINATION    = 82.5276
RA_OF_ASC_NODE = 166.0040
ARG_OF_PERICENTER = 154.7519
MEAN_ANOMALY   = 205.4624

EPHEMERIS_TYPE = 0
CLASSIFICATION_TYPE = U
NORAD_CAT_ID   = 17567
ELEMENT_SET_NO = 999
REV_AT_EPOCH   = 7655
BSTAR          = .46155E-4
MEAN_MOTION_DOT = .429E-5
MEAN_MOTION_DDOT = 0

CCSDS_OMM_VERS = 2.0
CREATION_DATE  = 
ORIGINATOR     = 

OBJECT_NAME    = COSMOS 1833
OBJECT_ID      = 1987-027A
CENTER_NAME    = EARTH
REF_FRAME      = TEME
TIME_SYSTEM    = UTC
MEAN_ELEMENT_THEORY = SGP/SGP4

EPOCH          = 2025-12-21T18:41:48.660288
MEAN_MOTION    = 14.13025950
ECCENTRICITY   = .0022902
INCLINATION    = 70.9153
RA_OF_ASC_NODE = 129.7749
ARG_OF_PERICENTER = 319.0884
MEAN_ANOMALY   = 40.8517

EPHEMERIS_TYPE = 0
CLASSIFICATION_TYPE = U
NORAD_CAT_ID   = 17589
ELEMENT_SET_NO = 999
REV_AT_EPOCH   = 99930
BSTAR          = .14623E-3
MEAN_MOTION_DOT = .225E-5
MEAN_MOTION_DDOT = 0

CCSDS_OMM_VERS = 2.0
CREATION_DATE  = 
ORIGINATOR     = 

OBJECT_NAME    = SL-16 R/B
OBJECT_ID      = 1987-027B
CENTER_NAME    = EARTH
REF_FRAME      = TEME
TIME_SYSTEM    = UTC
MEAN_ELEMENT_THEORY = SGP/SGP4

EPOCH          = 2025-12-21T16:42:29.856096
MEAN_MOTION    = 14.17155834
ECCENTRICITY   = .0007245
INCLINATION    = 71.0038
RA_OF_ASC_NODE = 80.8458
ARG_OF_PERICENTER = 250.2235
MEAN_ANOMALY   = 109.8108

EPHEMERIS_TYPE = 0
CLASSIFICATION_TYPE = U
NORAD_CAT_ID   = 17590
ELEMENT_SET_NO = 999
REV_AT_EPOCH   = 429
BSTAR          = .98705E-4
MEAN_MOTION_DOT = .151E-5
MEAN_MOTION_DDOT = 0

CCSDS_OMM_VERS = 2.0
CREATION_DATE  = 
ORIGINATOR     = 

OBJECT_NAME    = SL-14 R/B
OBJECT_ID      = 1987-038B
CENTER_NAME    = EARTH
REF_FRAME      = TEME
TIME_SYSTEM    = UTC
MEAN_ELEMENT_THEORY = SGP/SGP4

EPOCH          = 2025-12-21T18:10:33.133152
MEAN_MOTION    = 14.85268702
ECCENTRICITY   = .0020745
INCLINATION    = 82.5010
RA_OF_ASC_NODE = 10.2068
ARG_OF_PERICENTER = 64.4265
MEAN_ANOMALY   = 295.9092

EPHEMERIS_TYPE = 0
CLASSIFICATION_TYPE = U
NORAD_CAT_ID   = 17912
ELEMENT_SET_NO = 999
REV_AT_EPOCH   = 6766
BSTAR          = .39328E-4
MEAN_MOTION_DOT = .363E-5
MEAN_MOTION_DDOT = 0

CCSDS_OMM_VERS = 2.0
CREATION_DATE  = 
ORIGINATOR     = 

OBJECT_NAME    = COSMOS 1844
OBJECT_ID      = 1987-041A
CENTER_NAME    = EARTH
REF_FRAME      = TEME
TIME_SYSTEM    = UTC
MEAN_ELEMENT_THEORY = SGP/SGP4

EPOCH          = 2025-12-21T18:07:17.934816
MEAN_MOTION    = 14.14528939
ECCENTRICITY   = .0029771
INCLINATION    = 70.8965
RA_OF_ASC_NODE = 198.5561
ARG_OF_PERICENTER = 142.8230
MEAN_ANOMALY   = 217.4961

EPHEMERIS_TYPE = 0
CLASSIFICATION_TYPE = U
NORAD_CAT_ID   = 17973
ELEMENT_SET_NO = 999
REV_AT_EPOCH   = 99256
BSTAR          = .16387E-3
MEAN_MOTION_DOT = .268E-5
MEAN_MOTION_DDOT = 0

CCSDS_OMM_VERS = 2.0
CREATION_DATE  = 
ORIGINATOR     = 

OBJECT_NAME    = SL-14 R/B
OBJECT_ID      = 1987-055B
CENTER_NAME    = EARTH
REF_FRAME      = TEME
TIME_SYSTEM    = UTC
MEAN_ELEMENT_THEORY = SGP/SGP4

EPOCH          = 2025-12-21T16:19:34.398336
MEAN_MOTION    = 14.85529608
ECCENTRICITY   = .0019154
INCLINATION    = 82.4994
RA_OF_ASC_NODE = 62.5627
ARG_OF_PERICENTER = 271.5451
MEAN_ANOMALY   = 88.3571

EPHEMERIS_TYPE = 0
CLASSIFICATION_TYPE = U
NORAD_CAT_ID   = 18153
ELEMENT_SET_NO = 999
REV_AT_EPOCH   = 5835
BSTAR          = .45199E-4
MEAN_MOTION_DOT = .415E-5
MEAN_MOTION_DDOT = 0

CCSDS_OMM_VERS = 2.0
CREATION_DATE  = 
ORIGINATOR     = 

OBJECT_NAME    = COSMOS 1867
OBJECT_ID      = 1987-060A
CENTER_NAME    = EARTH
REF_FRAME      = TEME
TIME_SYSTEM    = UTC
MEAN_ELEMENT_THEORY = SGP/SGP4

EPOCH          = 2025-12-21T18:06:57.477024
MEAN_MOTION    = 14.31487386
ECCENTRICITY   = .0013646
INCLINATION    = 65.0086
RA_OF_ASC_NODE = 164.9564
ARG_OF_PERICENTER = 271.9636
MEAN_ANOMALY   = 87.9885

EPHEMERIS_TYPE = 0
CLASSIFICATION_TYPE = U
NORAD_CAT_ID   = 18187
ELEMENT_SET_NO = 999
REV_AT_EPOCH   = 878
BSTAR          = .22131E-4
MEAN_MOTION_DOT = -.41E-6
MEAN_MOTION_DDOT = 0

CCSDS_OMM_VERS = 2.0
CREATION_DATE  = 
ORIGINATOR     = 

OBJECT_NAME    = SL-14 R/B
OBJECT_ID      = 1988-001B
CENTER_NAME    = EARTH
REF_FRAME      = TEME
TIME_SYSTEM    = UTC
MEAN_ELEMENT_THEORY = SGP/SGP4

EPOCH          = 2025-12-21T17:42:28.030752
MEAN_MOTION    = 14.85432558
ECCENTRICITY   = .0019188
INCLINATION    = 82.5136
RA_OF_ASC_NODE = 268.6846
ARG_OF_PERICENTER = 132.5858
MEAN_ANOMALY   = 227.6981

EPHEMERIS_TYPE = 0
CLASSIFICATION_TYPE = U
NORAD_CAT_ID   = 18749
ELEMENT_SET_NO = 999
REV_AT_EPOCH   = 3045
BSTAR          = .44876E-4
MEAN_MOTION_DOT = .412E-5
MEAN_MOTION_DDOT = 0

